{"type": "FeatureCollection", "features": [ {"type": "Feature", "properties": {"norad_id": 39620, "name": "COSMOS 2492 (754)", "group": "gnss", "lat": 55.73230986102827, "lon": 97.76218444009355, "alt_km": 19158.14141563255, "timestamp": "2025-12-20T16:47:36.528598+00:00", "meta": {"OBJECT_NAME": "COSMOS 2492 (754)", "OBJECT_ID": "2014-012A", "EPOCH": "2025-12-20T01:56:38.014656", "MEAN_MOTION": 2.13103387, "ECCENTRICITY": 0.00142311, "INCLINATION": 65.4033, "RA_OF_ASC_NODE": 320.0211, "ARG_OF_PERICENTER": 312.7815, "MEAN_ANOMALY": 47.0902, "EPHEMERIS_TYPE": 0, "CLASSIFICATION_TYPE": "U", "NORAD_CAT_ID": 39620, "ELEMENT_SET_NO": 999, "REV_AT_EPOCH": 9142, "BSTAR": 0, "MEAN_MOTION_DOT": -5.4e-07, "MEAN_MOTION_DDOT": 0}, "tle": {"line1": "1 39620U 14012A   25354.08099554 -.00000054  00000+0  00000+0 0  9995", "line2": "2 39620  65.4033 320.0211 0014231 312.7815  47.0902  2.13103387 91426"}}, "geometry": {"type": "Point", "coordinates": [97.76218444009355, 55.73230986102827]}}, {"type": "Feature", "properties": {"norad_id": 39635, "name": "IRNSS-1B", "group": "gnss", "lat": 12.824281110553697, "lon": 39.563645041869925, "alt_km": 35789.65680252769, "timestamp": "2025-12-20T16:47:36.528609+00:00", "meta": {"OBJECT_NAME": "IRNSS-1B", "OBJECT_ID": "2014-017A", "EPOCH": "2025-12-19T18:39:43.398432", "MEAN_MOTION": 1.00270773, "ECCENTRICITY": 0.00187667, "INCLINATION": 29.2538, "RA_OF_ASC_NODE": 243.4836, "ARG_OF_PERICENTER": 246.8135, "MEAN_ANOMALY": 293.6282, "EPHEMERIS_TYPE": 0, "CLASSIFICATION_TYPE": "U", "NORAD_CAT_ID": 39635, "ELEMENT_SET_NO": 999, "REV_AT_EPOCH": 4299, "BSTAR": 0, "MEAN_MOTION_DOT": 1.52e-06, "MEAN_MOTION_DDOT": 0}, "tle": {"line1": "1 39635U 14017A   25353.77758563  .00000152  00000+0  00000+0 0  9991", "line2": "2 39635  29.2538 243.4836 0018766 246.8135 293.6282  1.00270773 42997"}}, "geometry": {"type": "Point", "coordinates": [39.563645041869925, 12.824281110553697]}}, {"type": "Feature", "properties": {"norad_id": 39727, "name": "LUCH 5V (SDCM/PRN 141)", "group": "gnss", "lat": 0.4017891929457168, "lon": 76.07374707900122, "alt_km": 35803.51549417736, "timestamp": "2025-12-20T16:47:36.528621+00:00", "meta": {"OBJECT_NAME": "LUCH 5V (SDCM/PRN 141)", "OBJECT_ID": "2014-023A", "EPOCH": "2025-12-19T17:07:14.606400", "MEAN_MOTION": 1.00267053, "ECCENTRICITY": 0.00043201, "INCLINATION": 4.6856, "RA_OF_ASC_NODE": 71.4767, "ARG_OF_PERICENTER": 213.4503, "MEAN_ANOMALY": 155.0982, "EPHEMERIS_TYPE": 0, "CLASSIFICATION_TYPE": "U", "NORAD_CAT_ID": 39727, "ELEMENT_SET_NO": 999, "REV_AT_EPOCH": 4256, "BSTAR": 0, "MEAN_MOTION_DOT": -2.47e-06, "MEAN_MOTION_DDOT": 0}, "tle": {"line1": "1 39727U 14023A   25353.71336350 -.00000247  00000+0  00000+0 0  9996", "line2": "2 39727   4.6856  71.4767 0004320 213.4503 155.0982  1.00267053 42569"}}, "geometry": {"type": "Point", "coordinates": [76.07374707900122, 0.4017891929457168]}}, {"type": "Feature", "properties": {"norad_id": 39741, "name": "GPS BIIF-6  (PRN 06)", "group": "gnss", "lat": 12.88781497838997, "lon": 149.76544928133555, "alt_km": 20275.364648865438, "timestamp": "2025-12-20T16:47:36.528633+00:00", "meta": {"OBJECT_NAME": "GPS BIIF-6  (PRN 06)", "OBJECT_ID": "2014-026A", "EPOCH": "2025-12-18T23:24:45.525888", "MEAN_MOTION": 2.00561009, "ECCENTRICITY": 0.00393411, "INCLINATION": 56.5812, "RA_OF_ASC_NODE": 338.5339, "ARG_OF_PERICENTER": 319.0443, "MEAN_ANOMALY": 40.6665, "EPHEMERIS_TYPE": 0, "CLASSIFICATION_TYPE": "U", "NORAD_CAT_ID": 39741, "ELEMENT_SET_NO": 999, "REV_AT_EPOCH": 8492, "BSTAR": 0, "MEAN_MOTION_DOT": -8.1e-07, "MEAN_MOTION_DDOT": 0}, "tle": {"line1": "1 39741U 14026A   25352.97552692 -.00000081  00000+0  00000+0 0  9997", "line2": "2 39741  56.5812 338.5339 0039341 319.0443  40.6665  2.00561009 84924"}}, "geometry": {"type": "Point", "coordinates": [149.76544928133555, 12.88781497838997]}}, {"type": "Feature", "properties": {"norad_id": 40001, "name": "COSMOS 2500 (755)", "group": "gnss", "lat": -15.714243051899492, "lon": -47.67881114717447, "alt_km": 19142.89149421708, "timestamp": "2025-12-20T16:47:36.528644+00:00", "meta": {"OBJECT_NAME": "COSMOS 2500 (755)", "OBJECT_ID": "2014-032A", "EPOCH": "2025-12-20T06:04:27.939360", "MEAN_MOTION": 2.13106249, "ECCENTRICITY": 0.000775, "INCLINATION": 65.339, "RA_OF_ASC_NODE": 319.7771, "ARG_OF_PERICENTER": 219.4032, "MEAN_ANOMALY": 140.5324, "EPHEMERIS_TYPE": 0, "CLASSIFICATION_TYPE": "U", "NORAD_CAT_ID": 40001, "ELEMENT_SET_NO": 999, "REV_AT_EPOCH": 8964, "BSTAR": 0, "MEAN_MOTION_DOT": -5.3e-07, "MEAN_MOTION_DDOT": 0}, "tle": {"line1": "1 40001U 14032A   25354.25310115 -.00000053  00000+0  00000+0 0  9999", "line2": "2 40001  65.3390 319.7771 0007750 219.4032 140.5324  2.13106249 89642"}}, "geometry": {"type": "Point", "coordinates": [-47.67881114717447, -15.714243051899492]}}, {"type": "Feature", "properties": {"norad_id": 40105, "name": "GPS BIIF-7  (PRN 09)", "group": "gnss", "lat": 53.38839298716634, "lon": -153.405020568814, "alt_km": 20092.882939107327, "timestamp": "2025-12-20T16:47:36.528655+00:00", "meta": {"OBJECT_NAME": "GPS BIIF-7  (PRN 09)", "OBJECT_ID": "2014-045A", "EPOCH": "2025-12-18T01:34:21.644256", "MEAN_MOTION": 2.00572958, "ECCENTRICITY": 0.00325491, "INCLINATION": 55.2322, "RA_OF_ASC_NODE": 95.6864, "ARG_OF_PERICENTER": 120.0469, "MEAN_ANOMALY": 240.2601, "EPHEMERIS_TYPE": 0, "CLASSIFICATION_TYPE": "U", "NORAD_CAT_ID": 40105, "ELEMENT_SET_NO": 999, "REV_AT_EPOCH": 8244, "BSTAR": 0, "MEAN_MOTION_DOT": -3.8e-07, "MEAN_MOTION_DDOT": 0}, "tle": {"line1": "1 40105U 14045A   25352.06552829 -.00000038  00000+0  00000+0 0  9998", "line2": "2 40105  55.2322  95.6864 0032549 120.0469 240.2601  2.00572958 82445"}}, "geometry": {"type": "Point", "coordinates": [-153.405020568814, 53.38839298716634]}}, {"type": "Feature", "properties": {"norad_id": 40128, "name": "GSAT0201 (GALILEO 5)", "group": "gnss", "lat": 24.73421581552367, "lon": 77.20298864485794, "alt_km": 17319.71804903218, "timestamp": "2025-12-20T16:47:36.528669+00:00", "meta": {"OBJECT_NAME": "GSAT0201 (GALILEO 5)", "OBJECT_ID": "2014-050A", "EPOCH": "2025-12-18T20:33:33.240672", "MEAN_MOTION": 1.85519721, "ECCENTRICITY": 0.1648519, "INCLINATION": 49.0697, "RA_OF_ASC_NODE": 280.8143, "ARG_OF_PERICENTER": 172.5106, "MEAN_ANOMALY": 190.3447, "EPHEMERIS_TYPE": 0, "CLASSIFICATION_TYPE": "U", "NORAD_CAT_ID": 40128, "ELEMENT_SET_NO": 999, "REV_AT_EPOCH": 7497, "BSTAR": 0, "MEAN_MOTION_DOT": -5.8e-07, "MEAN_MOTION_DDOT": 0}, "tle": {"line1": "1 40128U 14050A   25352.85663473 -.00000058  00000+0  00000+0 0  9996", "line2": "2 40128  49.0697 280.8143 1648519 172.5106 190.3447  1.85519721 74978"}}, "geometry": {"type": "Point", "coordinates": [77.20298864485794, 24.73421581552367]}}, {"type": "Feature", "properties": {"norad_id": 40129, "name": "GSAT0202 (GALILEO 6)", "group": "gnss", "lat": -10.99628459377415, "lon": -89.87584205221033, "alt_km": 26162.783561289627, "timestamp": "2025-12-20T16:47:36.528681+00:00", "meta": {"OBJECT_NAME": "GSAT0202 (GALILEO 6)", "OBJECT_ID": "2014-050B", "EPOCH": "2025-12-18T13:46:22.484640", "MEAN_MOTION": 1.85520466, "ECCENTRICITY": 0.16491259, "INCLINATION": 49.0858, "RA_OF_ASC_NODE": 279.9095, "ARG_OF_PERICENTER": 173.2442, "MEAN_ANOMALY": 189.3393, "EPHEMERIS_TYPE": 0, "CLASSIFICATION_TYPE": "U", "NORAD_CAT_ID": 40129, "ELEMENT_SET_NO": 999, "REV_AT_EPOCH": 7713, "BSTAR": 0, "MEAN_MOTION_DOT": -5.9e-07, "MEAN_MOTION_DDOT": 0}, "tle": {"line1": "1 40129U 14050B   25352.57387135 -.00000059  00000+0  00000+0 0  9995", "line2": "2 40129  49.0858 279.9095 1649125 173.2442 189.3393  1.85520466 77135"}}, "geometry": {"type": "Point", "coordinates": [-89.87584205221033, -10.99628459377415]}}, {"type": "Feature", "properties": {"norad_id": 40269, "name": "IRNSS-1C", "group": "gnss", "lat": -2.83247103171679, "lon": 64.44810165296234, "alt_km": 35719.122578772716, "timestamp": "2025-12-20T16:47:36.528693+00:00", "meta": {"OBJECT_NAME": "IRNSS-1C", "OBJECT_ID": "2014-061A", "EPOCH": "2025-12-20T08:29:20.855040", "MEAN_MOTION": 1.00273998, "ECCENTRICITY": 0.0018053, "INCLINATION": 6.0609, "RA_OF_ASC_NODE": 92.4696, "ARG_OF_PERICENTER": 1.2352, "MEAN_ANOMALY": 205.8049, "EPHEMERIS_TYPE": 0, "CLASSIFICATION_TYPE": "U", "NORAD_CAT_ID": 40269, "ELEMENT_SET_NO": 999, "REV_AT_EPOCH": 4089, "BSTAR": 0, "MEAN_MOTION_DOT": -1.43e-06, "MEAN_MOTION_DDOT": 0}, "tle": {"line1": "1 40269U 14061A   25354.35371360 -.00000143  00000+0  00000+0 0  9997", "line2": "2 40269   6.0609  92.4696 0018053   1.2352 205.8049  1.00273998 40898"}}, "geometry": {"type": "Point", "coordinates": [64.44810165296234, -2.83247103171679]}}, {"type": "Feature", "properties": {"norad_id": 40294, "name": "GPS BIIF-8  (PRN 03)", "group": "gnss", "lat": -9.455047083337792, "lon": -135.8998080692991, "alt_km": 20269.340696173225, "timestamp": "2025-12-20T16:47:36.528704+00:00", "meta": {"OBJECT_NAME": "GPS BIIF-8  (PRN 03)", "OBJECT_ID": "2014-068A", "EPOCH": "2025-12-20T10:28:39.196128", "MEAN_MOTION": 2.00565407, "ECCENTRICITY": 0.0060811, "INCLINATION": 56.8634, "RA_OF_ASC_NODE": 37.8483, "ARG_OF_PERICENTER": 69.039, "MEAN_ANOMALY": 291.6803, "EPHEMERIS_TYPE": 0, "CLASSIFICATION_TYPE": "U", "NORAD_CAT_ID": 40294, "ELEMENT_SET_NO": 999, "REV_AT_EPOCH": 8162, "BSTAR": 0, "MEAN_MOTION_DOT": -5.6e-07, "MEAN_MOTION_DDOT": 0}, "tle": {"line1": "1 40294U 14068A   25354.43656477 -.00000056  00000+0  00000+0 0  9999", "line2": "2 40294  56.8634  37.8483 0060811  69.0390 291.6803  2.00565407 81624"}}, "geometry": {"type": "Point", "coordinates": [-135.8998080692991, -9.455047083337792]}}]}